FENGYUN 1C DEB          
1 35146U 99025DMA 17345.58747734  .00002202  00000-0  40650-3 0  9993
2 35146  98.1331 112.2382 0257774 183.7616 176.1646 14.47227626222928
